start=new Date('2021-09-06T00:00:00.000Z').valueOf();
sats=[{"APOAPSIS":"547.612","COUNTRY_CODE":"US","ARG_OF_PERICENTER":"130.0275","FILE":"3109348","ECCENTRICITY":"0.00005710","CLASSIFICATION_TYPE":"U","MEAN_MOTION_DOT":"0.00001135","TIME_SYSTEM":"UTC","MEAN_ANOMALY":"230.0764","OBJECT_ID":"2021-036AW","DECAY_DATE":null,"NORAD_CAT_ID":"48320","TLE_LINE2":"2 48320  53.0538 290.6659 0000571 130.0275 230.0764 15.06399118 19949","GP_ID":"184166423","TLE_LINE1":"1 48320U 21036AW  21248.71788917  .00001135  00000-0  95035-4 0  9990","RCS_SIZE":"LARGE","EPOCH":"2021-09-05T17:13:45.624288","EPHEMERIS_TYPE":"0","PERIOD":"95.592","SITE":"AFETR","ELEMENT_SET_NO":"999","SEMIMAJOR_AXIS":"6925.351","REV_AT_EPOCH":"1994","OBJECT_NAME":"STARLINK-2029","CENTER_NAME":"EARTH","OBJECT_TYPE":"PAYLOAD","MEAN_MOTION_DDOT":"0.0000000000000","INCLINATION":"53.0538","BSTAR":"0.00009503500000","PERIAPSIS":"546.821","MEAN_ELEMENT_THEORY":"SGP4","RA_OF_ASC_NODE":"290.6659","MEAN_MOTION":"15.06399118","LAUNCH_DATE":"2021-04-29","REF_FRAME":"TEME"},{"RA_OF_ASC_NODE":"291.2757","MEAN_MOTION":"15.06405405","LAUNCH_DATE":"2021-04-29","REF_FRAME":"TEME","BSTAR":"-0.00000925600000","PERIAPSIS":"546.766","MEAN_ELEMENT_THEORY":"SGP4","CENTER_NAME":"EARTH","OBJECT_TYPE":"PAYLOAD","MEAN_MOTION_DDOT":"0.0000000000000","INCLINATION":"53.0545","SITE":"AFETR","ELEMENT_SET_NO":"999","SEMIMAJOR_AXIS":"6925.332","REV_AT_EPOCH":"2051","OBJECT_NAME":"STARLINK-2457","RCS_SIZE":"LARGE","EPOCH":"2021-09-05T13:57:22.165056","EPHEMERIS_TYPE":"0","PERIOD":"95.592","DECAY_DATE":null,"NORAD_CAT_ID":"48321","TLE_LINE2":"2 48321  53.0545 291.2757 0000622 101.0985 259.0074 15.06405405 20514","GP_ID":"184142879","TLE_LINE1":"1 48321U 21036AX  21248.58150654 -.00000419  00000-0 -92560-5 0  9994","MEAN_MOTION_DOT":"-0.00000419","TIME_SYSTEM":"UTC","MEAN_ANOMALY":"259.0074","OBJECT_ID":"2021-036AX","APOAPSIS":"547.628","COUNTRY_CODE":"US","ARG_OF_PERICENTER":"101.0985","FILE":"3109289","ECCENTRICITY":"0.00006220","CLASSIFICATION_TYPE":"U"},{"REF_FRAME":"TEME","LAUNCH_DATE":"2021-04-29","RA_OF_ASC_NODE":"291.5876","MEAN_MOTION":"15.06387768","MEAN_ELEMENT_THEORY":"SGP4","PERIAPSIS":"546.942","BSTAR":"0.00007202700000","INCLINATION":"53.0545","OBJECT_TYPE":"PAYLOAD","MEAN_MOTION_DDOT":"0.0000000000000","CENTER_NAME":"EARTH","REV_AT_EPOCH":"1991","OBJECT_NAME":"STARLINK-2477","ELEMENT_SET_NO":"999","SEMIMAJOR_AXIS":"6925.386","SITE":"AFETR","PERIOD":"95.593","EPHEMERIS_TYPE":"0","RCS_SIZE":"LARGE","EPOCH":"2021-09-05T12:16:32.156256","TLE_LINE1":"1 48322U 21036AY  21248.51148329  .00000792  00000-0  72027-4 0  9991","TLE_LINE2":"2 48322  53.0545 291.5876 0000446 148.2389 211.8626 15.06387768 19917","GP_ID":"184140984","NORAD_CAT_ID":"48322","DECAY_DATE":null,"OBJECT_ID":"2021-036AY","MEAN_ANOMALY":"211.8626","MEAN_MOTION_DOT":"0.00000792","TIME_SYSTEM":"UTC","ECCENTRICITY":"0.00004460","CLASSIFICATION_TYPE":"U","ARG_OF_PERICENTER":"148.2389","FILE":"3109252","COUNTRY_CODE":"US","APOAPSIS":"547.560"},{"ECCENTRICITY":"0.00005920","CLASSIFICATION_TYPE":"U","ARG_OF_PERICENTER":"119.1710","FILE":"3109348","COUNTRY_CODE":"US","APOAPSIS":"547.638","OBJECT_ID":"2021-036AZ","MEAN_ANOMALY":"240.9338","MEAN_MOTION_DOT":"-0.00000874","TIME_SYSTEM":"UTC","TLE_LINE1":"1 48323U 21036AZ  21248.64048368 -.00000874  00000-0 -39842-4 0  9999","NORAD_CAT_ID":"48323","TLE_LINE2":"2 48323  53.0554 291.0135 0000592 119.1710 240.9338 15.06395182 19932","GP_ID":"184165172","DECAY_DATE":null,"PERIOD":"95.592","EPHEMERIS_TYPE":"0","RCS_SIZE":"LARGE","EPOCH":"2021-09-05T15:22:17.789952","REV_AT_EPOCH":"1993","OBJECT_NAME":"STARLINK-2515","ELEMENT_SET_NO":"999","SEMIMAJOR_AXIS":"6925.363","SITE":"AFETR","INCLINATION":"53.0554","OBJECT_TYPE":"PAYLOAD","MEAN_MOTION_DDOT":"0.0000000000000","CENTER_NAME":"EARTH","MEAN_ELEMENT_THEORY":"SGP4","PERIAPSIS":"546.818","BSTAR":"-0.00003984200000","REF_FRAME":"TEME","LAUNCH_DATE":"2021-04-29","RA_OF_ASC_NODE":"291.0135","MEAN_MOTION":"15.06395182"},{"COUNTRY_CODE":"US","APOAPSIS":"547.780","ECCENTRICITY":"0.00007670","CLASSIFICATION_TYPE":"U","ARG_OF_PERICENTER":"110.6646","FILE":"3109348","MEAN_MOTION_DOT":"-0.00000235","TIME_SYSTEM":"UTC","OBJECT_ID":"2021-036BA","MEAN_ANOMALY":"249.4426","TLE_LINE2":"2 48324  53.0567 291.0362 0000767 110.6646 249.4426 15.06388575 19926","GP_ID":"184165923","NORAD_CAT_ID":"48324","DECAY_DATE":null,"TLE_LINE1":"1 48324U 21036BA  21248.63679667 -.00000235  00000-0  31115-5 0  9997","RCS_SIZE":"LARGE","EPOCH":"2021-09-05T15:16:59.232288","PERIOD":"95.593","EPHEMERIS_TYPE":"0","SITE":"AFETR","REV_AT_EPOCH":"1992","OBJECT_NAME":"STARLINK-2527","SEMIMAJOR_AXIS":"6925.384","ELEMENT_SET_NO":"999","CENTER_NAME":"EARTH","INCLINATION":"53.0567","OBJECT_TYPE":"PAYLOAD","MEAN_MOTION_DDOT":"0.0000000000000","PERIAPSIS":"546.717","BSTAR":"0.00000311150000","MEAN_ELEMENT_THEORY":"SGP4","MEAN_MOTION":"15.06388575","RA_OF_ASC_NODE":"291.0362","REF_FRAME":"TEME","LAUNCH_DATE":"2021-04-29"},{"RA_OF_ASC_NODE":"291.9428","MEAN_MOTION":"15.06403267","REF_FRAME":"TEME","LAUNCH_DATE":"2021-04-29","PERIAPSIS":"547.028","BSTAR":"0.00007641600000","MEAN_ELEMENT_THEORY":"SGP4","CENTER_NAME":"EARTH","INCLINATION":"53.0561","MEAN_MOTION_DDOT":"0.0000000000000","OBJECT_TYPE":"PAYLOAD","SITE":"AFETR","OBJECT_NAME":"STARLINK-2495","REV_AT_EPOCH":"1990","SEMIMAJOR_AXIS":"6925.339","ELEMENT_SET_NO":"999","EPOCH":"2021-09-05T10:25:04.831680","RCS_SIZE":"LARGE","PERIOD":"95.592","EPHEMERIS_TYPE":"0","TLE_LINE2":"2 48325  53.0561 291.9428 0000254 110.7326 249.3691 15.06403267 19907","GP_ID":"184139733","NORAD_CAT_ID":"48325","DECAY_DATE":null,"TLE_LINE1":"1 48325U 21036BB  21248.43408370  .00000858  00000-0  76416-4 0  9999","TIME_SYSTEM":"UTC","MEAN_MOTION_DOT":"0.00000858","OBJECT_ID":"2021-036BB","MEAN_ANOMALY":"249.3691","COUNTRY_CODE":"US","APOAPSIS":"547.379","CLASSIFICATION_TYPE":"U","ECCENTRICITY":"0.00002540","FILE":"3109252","ARG_OF_PERICENTER":"110.7326"},{"LAUNCH_DATE":"2021-04-29","REF_FRAME":"TEME","RA_OF_ASC_NODE":"291.0567","MEAN_MOTION":"15.06389435","MEAN_ELEMENT_THEORY":"SGP4","BSTAR":"0.00007565100000","PERIAPSIS":"546.860","OBJECT_TYPE":"PAYLOAD","MEAN_MOTION_DDOT":"0.0000000000000","INCLINATION":"53.0548","CENTER_NAME":"EARTH","SEMIMAJOR_AXIS":"6925.381","ELEMENT_SET_NO":"999","REV_AT_EPOCH":"1993","OBJECT_NAME":"STARLINK-2498","SITE":"AFETR","EPHEMERIS_TYPE":"0","PERIOD":"95.593","RCS_SIZE":"LARGE","EPOCH":"2021-09-05T15:06:22.715712","TLE_LINE1":"1 48326U 21036BC  21248.62942958  .00000846  00000-0  75651-4 0  9993","DECAY_DATE":null,"NORAD_CAT_ID":"48326","TLE_LINE2":"2 48326  53.0548 291.0567 0000558  82.5616 277.5437 15.06389435 19937","GP_ID":"184166421","MEAN_ANOMALY":"277.5437","OBJECT_ID":"2021-036BC","MEAN_MOTION_DOT":"0.00000846","TIME_SYSTEM":"UTC","ARG_OF_PERICENTER":"82.5616","FILE":"3109348","ECCENTRICITY":"0.00005580","CLASSIFICATION_TYPE":"U","APOAPSIS":"547.632","COUNTRY_CODE":"US"},{"CLASSIFICATION_TYPE":"U","ECCENTRICITY":"0.00008840","FILE":"3109252","ARG_OF_PERICENTER":"130.7336","COUNTRY_CODE":"US","APOAPSIS":"547.828","OBJECT_ID":"2021-036BD","MEAN_ANOMALY":"229.3730","TIME_SYSTEM":"UTC","MEAN_MOTION_DOT":"-0.00000726","TLE_LINE1":"1 48327U 21036BD  21248.55939702 -.00000726  00000-0 -29870-4 0  9990","TLE_LINE2":"2 48327  53.0548 291.3703 0000884 130.7336 229.3730 15.06399280 19929","NORAD_CAT_ID":"48327","GP_ID":"184141235","DECAY_DATE":null,"PERIOD":"95.592","EPHEMERIS_TYPE":"0","EPOCH":"2021-09-05T13:25:31.902528","RCS_SIZE":"LARGE","OBJECT_NAME":"STARLINK-2502","REV_AT_EPOCH":"1992","SEMIMAJOR_AXIS":"6925.351","ELEMENT_SET_NO":"999","SITE":"AFETR","INCLINATION":"53.0548","MEAN_MOTION_DDOT":"0.0000000000000","OBJECT_TYPE":"PAYLOAD","CENTER_NAME":"EARTH","MEAN_ELEMENT_THEORY":"SGP4","PERIAPSIS":"546.604","BSTAR":"-0.00002987000000","REF_FRAME":"TEME","LAUNCH_DATE":"2021-04-29","RA_OF_ASC_NODE":"291.3703","MEAN_MOTION":"15.06399280"},{"CENTER_NAME":"EARTH","INCLINATION":"53.0549","OBJECT_TYPE":"PAYLOAD","MEAN_MOTION_DDOT":"0.0000000000000","SITE":"AFETR","REV_AT_EPOCH":"1993","OBJECT_NAME":"STARLINK-2504","ELEMENT_SET_NO":"999","SEMIMAJOR_AXIS":"6925.341","RA_OF_ASC_NODE":"291.0906","MEAN_MOTION":"15.06402609","REF_FRAME":"TEME","LAUNCH_DATE":"2021-04-29","PERIAPSIS":"546.769","BSTAR":"0.00009616200000","MEAN_ELEMENT_THEORY":"SGP4","MEAN_MOTION_DOT":"0.00001152","TIME_SYSTEM":"UTC","OBJECT_ID":"2021-036BE","MEAN_ANOMALY":"276.1423","COUNTRY_CODE":"US","APOAPSIS":"547.642","ECCENTRICITY":"0.00006300","CLASSIFICATION_TYPE":"U","ARG_OF_PERICENTER":"83.9638","FILE":"3109348","RCS_SIZE":"LARGE","EPOCH":"2021-09-05T14:55:47.323200","PERIOD":"95.592","EPHEMERIS_TYPE":"0","TLE_LINE2":"2 48328  53.0549 291.0906 0000630  83.9638 276.1423 15.06402609 19936","NORAD_CAT_ID":"48328","GP_ID":"184166424","DECAY_DATE":null,"TLE_LINE1":"1 48328U 21036BE  21248.62207550  .00001152  00000-0  96162-4 0  9998"},{"MEAN_MOTION":"15.06397123","RA_OF_ASC_NODE":"291.1095","REF_FRAME":"TEME","LAUNCH_DATE":"2021-04-29","PERIAPSIS":"546.675","BSTAR":"0.00008368700000","MEAN_ELEMENT_THEORY":"SGP4","CENTER_NAME":"EARTH","INCLINATION":"53.0553","MEAN_MOTION_DDOT":"0.0000000000000","OBJECT_TYPE":"PAYLOAD","SITE":"AFETR","OBJECT_NAME":"STARLINK-2510","REV_AT_EPOCH":"1993","ELEMENT_SET_NO":"999","SEMIMAJOR_AXIS":"6925.357","EPOCH":"2021-09-05T14:50:26.889792","RCS_SIZE":"LARGE","PERIOD":"95.592","EPHEMERIS_TYPE":"0","GP_ID":"184166675","TLE_LINE2":"2 48329  53.0553 291.1095 0000790  79.6593 280.4484 15.06397123 19930","NORAD_CAT_ID":"48329","DECAY_DATE":null,"TLE_LINE1":"1 48329U 21036BF  21248.61836678  .00000965  00000-0  83687-4 0  9996","TIME_SYSTEM":"UTC","MEAN_MOTION_DOT":"0.00000965","OBJECT_ID":"2021-036BF","MEAN_ANOMALY":"280.4484","COUNTRY_CODE":"US","APOAPSIS":"547.769","CLASSIFICATION_TYPE":"U","ECCENTRICITY":"0.00007900","FILE":"3109348","ARG_OF_PERICENTER":"79.6593"}];
